KUIPER-00008            
1 63724U 25088A   26004.44565904  .00011634  00000+0  97393-3 0  9992
2 63724  51.8917  19.7900 0007565 245.3867 114.6316 14.98812808 38427
KUIPER-00009            
1 63725U 25088B   26005.03489369  .00008815  00000+0  11814-2 0  9999
2 63725  51.9031  28.1061 0010457 247.4064 112.5793 14.79991608 38357
KUIPER-00010            
1 63726U 25088C   26005.15011297  .00006749  00000+0  93024-3 0  9992
2 63726  51.9023   3.9338 0009248 292.3922  67.6059 14.79139144 38326
KUIPER-00011            
1 63727U 25088D   26004.71471035  .00001386  00000+0  21086-3 0  9995
2 63727  51.9031  13.5501 0012112 265.8522  94.1056 14.79957765 38284
KUIPER-00012            
1 63728U 25088E   26005.13955150  .00004602  00000+0  68363-3 0  9991
2 63728  51.9036 355.5811 0008022 277.0850  82.9198 14.76565987 38524
KUIPER-00013            
1 63729U 25088F   26004.42613822  .00005080  00000+0  69418-3 0  9993
2 63729  51.9021  32.2638 0006230 166.3637 193.7495 14.79971968 38059
KUIPER-00014            
1 63730U 25088G   26005.03205743  .00006162  00000+0  83579-3 0  9998
2 63730  51.9020  30.5532 0004697 260.0606  99.9826 14.79969305 37941
KUIPER-00015            
1 63731U 25088H   26004.36419651  .00008280  00000+0  10565-2 0  9996
2 63731  51.9004  44.1500 0009881 219.7146 140.3095 14.82140790 38156
