<?xml version="1.0" encoding="UTF-8"?>
<ndm xmlns:xsi="http://www.w3.org/2001/XMLSchema-instance" xsi:noNamespaceSchemaLocation="https://sanaregistry.org/r/ndmxml_unqualified/ndmxml-2.0.0-master-2.0.xsd">
<omm id="CCSDS_OMM_VERS" version="2.0">
<header><CREATION_DATE/><ORIGINATOR/></header><body><segment><metadata><OBJECT_NAME>KUIPER-00008</OBJECT_NAME><OBJECT_ID>2025-088A</OBJECT_ID><CENTER_NAME>EARTH</CENTER_NAME><REF_FRAME>TEME</REF_FRAME><TIME_SYSTEM>UTC</TIME_SYSTEM><MEAN_ELEMENT_THEORY>SGP4</MEAN_ELEMENT_THEORY></metadata><data><meanElements><EPOCH>2026-01-04T10:41:44.941056</EPOCH><MEAN_MOTION>14.98812808</MEAN_MOTION><ECCENTRICITY>.00075652</ECCENTRICITY><INCLINATION>51.8917</INCLINATION><RA_OF_ASC_NODE>19.7900</RA_OF_ASC_NODE><ARG_OF_PERICENTER>245.3867</ARG_OF_PERICENTER><MEAN_ANOMALY>114.6316</MEAN_ANOMALY></meanElements><tleParameters><EPHEMERIS_TYPE>0</EPHEMERIS_TYPE><CLASSIFICATION_TYPE>U</CLASSIFICATION_TYPE><NORAD_CAT_ID>63724</NORAD_CAT_ID><ELEMENT_SET_NO>999</ELEMENT_SET_NO><REV_AT_EPOCH>3842</REV_AT_EPOCH><BSTAR>.97392933E-3</BSTAR><MEAN_MOTION_DOT>.11634E-3</MEAN_MOTION_DOT><MEAN_MOTION_DDOT>0</MEAN_MOTION_DDOT></tleParameters></data></segment></body></omm>
<omm id="CCSDS_OMM_VERS" version="2.0">
<header><CREATION_DATE/><ORIGINATOR/></header><body><segment><metadata><OBJECT_NAME>KUIPER-00009</OBJECT_NAME><OBJECT_ID>2025-088B</OBJECT_ID><CENTER_NAME>EARTH</CENTER_NAME><REF_FRAME>TEME</REF_FRAME><TIME_SYSTEM>UTC</TIME_SYSTEM><MEAN_ELEMENT_THEORY>SGP4</MEAN_ELEMENT_THEORY></metadata><data><meanElements><EPOCH>2026-01-05T00:50:14.814816</EPOCH><MEAN_MOTION>14.79991608</MEAN_MOTION><ECCENTRICITY>.0010457</ECCENTRICITY><INCLINATION>51.9031</INCLINATION><RA_OF_ASC_NODE>28.1061</RA_OF_ASC_NODE><ARG_OF_PERICENTER>247.4064</ARG_OF_PERICENTER><MEAN_ANOMALY>112.5793</MEAN_ANOMALY></meanElements><tleParameters><EPHEMERIS_TYPE>0</EPHEMERIS_TYPE><CLASSIFICATION_TYPE>U</CLASSIFICATION_TYPE><NORAD_CAT_ID>63725</NORAD_CAT_ID><ELEMENT_SET_NO>999</ELEMENT_SET_NO><REV_AT_EPOCH>3835</REV_AT_EPOCH><BSTAR>.11814E-2</BSTAR><MEAN_MOTION_DOT>.8815E-4</MEAN_MOTION_DOT><MEAN_MOTION_DDOT>0</MEAN_MOTION_DDOT></tleParameters></data></segment></body></omm>
<omm id="CCSDS_OMM_VERS" version="2.0">
<header><CREATION_DATE/><ORIGINATOR/></header><body><segment><metadata><OBJECT_NAME>KUIPER-00010</OBJECT_NAME><OBJECT_ID>2025-088C</OBJECT_ID><CENTER_NAME>EARTH</CENTER_NAME><REF_FRAME>TEME</REF_FRAME><TIME_SYSTEM>UTC</TIME_SYSTEM><MEAN_ELEMENT_THEORY>SGP4</MEAN_ELEMENT_THEORY></metadata><data><meanElements><EPOCH>2026-01-05T03:36:09.760608</EPOCH><MEAN_MOTION>14.79139144</MEAN_MOTION><ECCENTRICITY>.0009248</ECCENTRICITY><INCLINATION>51.9023</INCLINATION><RA_OF_ASC_NODE>3.9338</RA_OF_ASC_NODE><ARG_OF_PERICENTER>292.3922</ARG_OF_PERICENTER><MEAN_ANOMALY>67.6059</MEAN_ANOMALY></meanElements><tleParameters><EPHEMERIS_TYPE>0</EPHEMERIS_TYPE><CLASSIFICATION_TYPE>U</CLASSIFICATION_TYPE><NORAD_CAT_ID>63726</NORAD_CAT_ID><ELEMENT_SET_NO>999</ELEMENT_SET_NO><REV_AT_EPOCH>3832</REV_AT_EPOCH><BSTAR>.93024E-3</BSTAR><MEAN_MOTION_DOT>.6749E-4</MEAN_MOTION_DOT><MEAN_MOTION_DDOT>0</MEAN_MOTION_DDOT></tleParameters></data></segment></body></omm>
<omm id="CCSDS_OMM_VERS" version="2.0">
<header><CREATION_DATE/><ORIGINATOR/></header><body><segment><metadata><OBJECT_NAME>KUIPER-00011</OBJECT_NAME><OBJECT_ID>2025-088D</OBJECT_ID><CENTER_NAME>EARTH</CENTER_NAME><REF_FRAME>TEME</REF_FRAME><TIME_SYSTEM>UTC</TIME_SYSTEM><MEAN_ELEMENT_THEORY>SGP4</MEAN_ELEMENT_THEORY></metadata><data><meanElements><EPOCH>2026-01-04T17:09:10.974240</EPOCH><MEAN_MOTION>14.79957765</MEAN_MOTION><ECCENTRICITY>.00121127</ECCENTRICITY><INCLINATION>51.9031</INCLINATION><RA_OF_ASC_NODE>13.5501</RA_OF_ASC_NODE><ARG_OF_PERICENTER>265.8522</ARG_OF_PERICENTER><MEAN_ANOMALY>94.1056</MEAN_ANOMALY></meanElements><tleParameters><EPHEMERIS_TYPE>0</EPHEMERIS_TYPE><CLASSIFICATION_TYPE>U</CLASSIFICATION_TYPE><NORAD_CAT_ID>63727</NORAD_CAT_ID><ELEMENT_SET_NO>999</ELEMENT_SET_NO><REV_AT_EPOCH>3828</REV_AT_EPOCH><BSTAR>.21085541E-3</BSTAR><MEAN_MOTION_DOT>.1386E-4</MEAN_MOTION_DOT><MEAN_MOTION_DDOT>0</MEAN_MOTION_DDOT></tleParameters></data></segment></body></omm>
<omm id="CCSDS_OMM_VERS" version="2.0">
<header><CREATION_DATE/><ORIGINATOR/></header><body><segment><metadata><OBJECT_NAME>KUIPER-00012</OBJECT_NAME><OBJECT_ID>2025-088E</OBJECT_ID><CENTER_NAME>EARTH</CENTER_NAME><REF_FRAME>TEME</REF_FRAME><TIME_SYSTEM>UTC</TIME_SYSTEM><MEAN_ELEMENT_THEORY>SGP4</MEAN_ELEMENT_THEORY></metadata><data><meanElements><EPOCH>2026-01-05T03:20:57.249600</EPOCH><MEAN_MOTION>14.76565987</MEAN_MOTION><ECCENTRICITY>.0008022</ECCENTRICITY><INCLINATION>51.9036</INCLINATION><RA_OF_ASC_NODE>355.5811</RA_OF_ASC_NODE><ARG_OF_PERICENTER>277.0850</ARG_OF_PERICENTER><MEAN_ANOMALY>82.9198</MEAN_ANOMALY></meanElements><tleParameters><EPHEMERIS_TYPE>0</EPHEMERIS_TYPE><CLASSIFICATION_TYPE>U</CLASSIFICATION_TYPE><NORAD_CAT_ID>63728</NORAD_CAT_ID><ELEMENT_SET_NO>999</ELEMENT_SET_NO><REV_AT_EPOCH>3852</REV_AT_EPOCH><BSTAR>.68363E-3</BSTAR><MEAN_MOTION_DOT>.4602E-4</MEAN_MOTION_DOT><MEAN_MOTION_DDOT>0</MEAN_MOTION_DDOT></tleParameters></data></segment></body></omm>
<omm id="CCSDS_OMM_VERS" version="2.0">
<header><CREATION_DATE/><ORIGINATOR/></header><body><segment><metadata><OBJECT_NAME>KUIPER-00013</OBJECT_NAME><OBJECT_ID>2025-088F</OBJECT_ID><CENTER_NAME>EARTH</CENTER_NAME><REF_FRAME>TEME</REF_FRAME><TIME_SYSTEM>UTC</TIME_SYSTEM><MEAN_ELEMENT_THEORY>SGP4</MEAN_ELEMENT_THEORY></metadata><data><meanElements><EPOCH>2026-01-04T10:13:38.342208</EPOCH><MEAN_MOTION>14.79971968</MEAN_MOTION><ECCENTRICITY>.00062302</ECCENTRICITY><INCLINATION>51.9021</INCLINATION><RA_OF_ASC_NODE>32.2638</RA_OF_ASC_NODE><ARG_OF_PERICENTER>166.3637</ARG_OF_PERICENTER><MEAN_ANOMALY>193.7495</MEAN_ANOMALY></meanElements><tleParameters><EPHEMERIS_TYPE>0</EPHEMERIS_TYPE><CLASSIFICATION_TYPE>U</CLASSIFICATION_TYPE><NORAD_CAT_ID>63729</NORAD_CAT_ID><ELEMENT_SET_NO>999</ELEMENT_SET_NO><REV_AT_EPOCH>3805</REV_AT_EPOCH><BSTAR>.69417577E-3</BSTAR><MEAN_MOTION_DOT>.508E-4</MEAN_MOTION_DOT><MEAN_MOTION_DDOT>0</MEAN_MOTION_DDOT></tleParameters></data></segment></body></omm>
<omm id="CCSDS_OMM_VERS" version="2.0">
<header><CREATION_DATE/><ORIGINATOR/></header><body><segment><metadata><OBJECT_NAME>KUIPER-00014</OBJECT_NAME><OBJECT_ID>2025-088G</OBJECT_ID><CENTER_NAME>EARTH</CENTER_NAME><REF_FRAME>TEME</REF_FRAME><TIME_SYSTEM>UTC</TIME_SYSTEM><MEAN_ELEMENT_THEORY>SGP4</MEAN_ELEMENT_THEORY></metadata><data><meanElements><EPOCH>2026-01-05T00:46:09.761952</EPOCH><MEAN_MOTION>14.79969305</MEAN_MOTION><ECCENTRICITY>.0004697</ECCENTRICITY><INCLINATION>51.9020</INCLINATION><RA_OF_ASC_NODE>30.5532</RA_OF_ASC_NODE><ARG_OF_PERICENTER>260.0606</ARG_OF_PERICENTER><MEAN_ANOMALY>99.9826</MEAN_ANOMALY></meanElements><tleParameters><EPHEMERIS_TYPE>0</EPHEMERIS_TYPE><CLASSIFICATION_TYPE>U</CLASSIFICATION_TYPE><NORAD_CAT_ID>63730</NORAD_CAT_ID><ELEMENT_SET_NO>999</ELEMENT_SET_NO><REV_AT_EPOCH>3794</REV_AT_EPOCH><BSTAR>.83579E-3</BSTAR><MEAN_MOTION_DOT>.6162E-4</MEAN_MOTION_DOT><MEAN_MOTION_DDOT>0</MEAN_MOTION_DDOT></tleParameters></data></segment></body></omm>
<omm id="CCSDS_OMM_VERS" version="2.0">
<header><CREATION_DATE/><ORIGINATOR/></header><body><segment><metadata><OBJECT_NAME>KUIPER-00015</OBJECT_NAME><OBJECT_ID>2025-088H</OBJECT_ID><CENTER_NAME>EARTH</CENTER_NAME><REF_FRAME>TEME</REF_FRAME><TIME_SYSTEM>UTC</TIME_SYSTEM><MEAN_ELEMENT_THEORY>SGP4</MEAN_ELEMENT_THEORY></metadata><data><meanElements><EPOCH>2026-01-04T08:44:26.578464</EPOCH><MEAN_MOTION>14.82140790</MEAN_MOTION><ECCENTRICITY>.00098811</ECCENTRICITY><INCLINATION>51.9004</INCLINATION><RA_OF_ASC_NODE>44.1500</RA_OF_ASC_NODE><ARG_OF_PERICENTER>219.7146</ARG_OF_PERICENTER><MEAN_ANOMALY>140.3095</MEAN_ANOMALY></meanElements><tleParameters><EPHEMERIS_TYPE>0</EPHEMERIS_TYPE><CLASSIFICATION_TYPE>U</CLASSIFICATION_TYPE><NORAD_CAT_ID>63731</NORAD_CAT_ID><ELEMENT_SET_NO>999</ELEMENT_SET_NO><REV_AT_EPOCH>3815</REV_AT_EPOCH><BSTAR>.10565059E-2</BSTAR><MEAN_MOTION_DOT>.828E-4</MEAN_MOTION_DOT><MEAN_MOTION_DDOT>0</MEAN_MOTION_DDOT></tleParameters></data></segment></body></omm>

</ndm>
